{
  "type": "FeatureCollection",
  "features": [
    {
      "type": "Feature",
      "properties": {
        "isbbox": true
      },
      "geometry": {
        "type": "Polygon",
        "coordinates": [
          [
            [
              120.02132713794708,
              30.223006957625174
            ],
            [
              120.02187564969063,
              30.223006957625174
            ],
            [
              120.02187564969063,
              30.223476275306506
            ],
            [
              120.02132713794708,
              30.223476275306506
            ],
            [
              120.02132713794708,
              30.223006957625174
            ]
          ]
        ]
      }
    },
    {
      "type": "Feature",
      "properties": {},
      "geometry": {
        "type": "Polygon",
        "coordinates": [
          [
            [
              120.02132713794708,
              30.223232925677166
            ],
            [
              120.0216382741928,
              30.223232925677166
            ],
            [
              120.0216382741928,
              30.223268848755595
            ],
            [
              120.02132713794708,
              30.223268848755595
            ],
            [
              120.02132713794708,
              30.223232925677166
            ]
          ]
        ]
      }
    }
  ]
}
